P/2013 G1 (Kowalski),e,5.4570,221.3123,51.4062,6.906031,0.0543077,0.50987937,221.3408,01/23.0/2025,2000,g 11.0,4.0
# From MPC 84025
P/2013 G4 (PANSTARRS),e,5.9197,339.5878,214.5291,4.433125,0.1055940,0.40924790,100.2094,01/23.0/2025,2000,g 15.0,4.0
# From MPC 91613
P/2013 J2 (McNaught),e,15.5009,289.2960,37.8743,6.227935,0.0634144,0.65601537,264.2033,01/23.0/2025,2000,g 13.0,4.0
# From MPC 86229
P/2013 N3 (PANSTARRS),e,2.1680,17.5804,323.9061,7.404138,0.0489207,0.59121829,195.4701,01/23.0/2025,2000,g 13.0,4.0
# From MPC 85834
P/2013 N5 (PANSTARRS),e,23.4226,187.1645,176.9630,6.798452,0.0556018,0.73169349,234.3388,01/23.0/2025,2000,g 17.0,4.0
# From MPC 85834
P/2013 P1 (PANSTARRS),e,18.6920,160.6876,138.1612,8.591982,0.0391349,0.60260319,170.5198,01/23.0/2025,2000,g 12.0,4.0
# From MPEC 2022-V95
P/2013 R3 (Catalina-PANSTARRS),e,0.8646,341.9277,11.4704,3.034404,0.1864636,0.27649384,57.4591,01/23.0/2025,2000,g 14.0,4.0
# From unp
P/2013 R3-A (Catalina-PANSTARRS),e,0.8637,341.8820,11.5492,3.034160,0.1864860,0.27642741,57.5358,01/23.0/2025,2000,g  9.0,4.0
# From MPEC 2015-M77
P/2013 R3-B (Catalina-PANSTARRS),e,0.8649,341.9385,11.4840,3.034378,0.1864660,0.27647019,57.4555,01/23.0/2025,2000,g  9.0,4.0
# From MPC 85835
P/2013 T1 (PANSTARRS),e,24.2744,10.0922,346.1798,5.854715,0.0695738,0.62369591,290.9226,01/23.0/2025,2000,g 16.5,4.0
# From MPC 86643
P/2013 T2 (Schwartz),e,9.4478,0.8115,345.5741,3.493303,0.1509558,0.50027226,283.8620,01/23.0/2025,2000,g 16.0,4.0
# From MPC 91613
P/2013 W1 (PANSTARRS),e,4.6997,117.8341,1.2353,3.485262,0.1514784,0.59376074,241.5543,01/23.0/2025,2000,g 17.5,4.0
# From MPC101095
P/2013 YG46 (Spacewatch),e,7.7271,48.3034,243.1059,3.275001,0.1662979,0.46333457,123.3092,01/23.0/2025,2000,g 10.0,4.0
# From MPC 89728
P/2014 A2 (Hill),e,24.5638,106.6569,356.1837,5.922526,0.0683823,0.64664218,281.6243,01/23.0/2025,2000,g 15.0,4.0
# From MPEC 2024-F34
P/2014 C1 (TOTAS),e,3.2249,39.9703,188.3716,4.016641,0.1224361,0.34450053,206.2401,01/23.0/2025,2000,g 15.5,4.0
# From MPEC 2025-AE4
C/2014 F3 (Sheppard-Trujillo),e,6.5210,325.9800,5.1352,14.40324,0.0180307,0.60220502,24.0873,01/23.0/2025,2000,g  6.0,4.0
# From MPC 98560
P/2014 L2 (NEOWISE),e,5.1919,149.3435,182.7037,6.310856,0.0621687,0.64640440,238.8234,01/23.0/2025,2000,g 12.0,4.0
# From MPC 90769
P/2014 L3 (Hill),e,6.2553,115.5294,178.6697,8.183733,0.0420995,0.77116433,162.8034,01/23.0/2025,2000,g 16.0,4.0
# From MPC 91614
P/2014 M4 (PANSTARRS),e,3.3472,263.1998,148.1197,5.863261,0.0694217,0.59610358,254.7797,01/23.0/2025,2000,g 15.0,4.0
# From MPC 98560
P/2014 O3 (PANSTARRS),e,7.7889,87.6240,204.7069,7.586717,0.0471654,0.38250078,186.0759,01/23.0/2025,2000,g 10.5,4.0
# From MPEC 2025-AE4
C/2014 OG392 (PANSTARRS),e,9.0325,145.8252,255.1957,12.25858,0.0229638,0.18577409,25.6709,01/23.0/2025,2000,g  6.0,4.0
# From MPC 91616
P/2014 U4 (PANSTARRS),e,6.4234,11.9279,347.8519,3.511745,0.1497682,0.46390521,215.6617,01/23.0/2025,2000,g 18.0,4.0
# From MPEC 2025-AH4
C/2014 UN271 (Bernardinelli-Bernstein),h,01/16.5728/2031,95.4422,189.9461,326.0829,1.004075,10.959873,2000,2.5,3.2
# From MPC 95211
P/2014 V1 (PANSTARRS),e,22.5028,166.1896,177.6607,5.480611,0.0768176,0.53353913,280.2255,01/23.0/2025,2000,g 14.0,4.0
# From MPC105542
P/2014 W4 (PANSTARRS),e,15.2844,33.3190,67.7051,6.580228,0.0583906,0.35503160,192.9154,01/23.0/2025,2000,g 11.0,4.0
# From MPC 94281
P/2014 X1 (Elenin),e,26.0523,61.5540,33.9314,6.198938,0.0638599,0.71084980,234.2705,01/23.0/2025,2000,g 15.0,4.0
# From MPC 92275
P/2015 A3 (PANSTARRS),e,172.5511,277.4815,249.6577,7.817271,0.0450943,0.85063694,163.3648,01/23.0/2025,2000,g 20.0,4.0
# From MPC 99270
P/2015 B1 (PANSTARRS),e,18.0832,352.8570,188.6833,9.475557,0.0337907,0.36670527,115.8011,01/23.0/2025,2000,g  8.5,4.0
# From MPC109141
P/2015 B4 (Lemmon-PANSTARRS),e,1.7676,266.1369,227.0910,8.505259,0.0397350,0.56240146,144.5246,01/23.0/2025,2000,g 11.0,4.0
# From MPC101096
P/2015 C1 (TOTAS-Gibbs),e,13.9353,348.7808,177.9977,6.553126,0.0587532,0.56627024,208.9083,01/23.0/2025,2000,g 12.5,4.0
# From MPEC 2025-AH4
P/2015 CD60 (LINEAR),e,14.4826,279.2300,179.0868,4.595199,0.1000570,0.57252185,3.5088,01/23.0/2025,2000,g 14.7,4.0
# From MPC109141
P/2015 D5 (Kowalski),e,20.5533,74.0902,39.6065,8.944259,0.0368458,0.49177200,145.2432,01/23.0/2025,2000,g  9.0,4.0
# From MPEC 2024-R10
P/2015 D6 (Lemmon-PANSTARRS),e,20.2829,45.4594,125.8427,7.120976,0.0518674,0.36230951,181.1470,01/23.0/2025,2000,g 10.5,4.0
# From MPC 95213
P/2015 K5 (PANSTARRS),e,39.9278,134.3029,106.1254,6.728138,0.0564757,0.55146785,199.4894,01/23.0/2025,2000,g 13.5,4.0
# From MPC107684
P/2015 M2 (PANSTARRS),e,3.9677,86.6983,225.8340,7.254643,0.0504406,0.17779317,173.0050,01/23.0/2025,2000,g  8.5,4.0
# From MPC 99819
P/2015 P4 (PANSTARRS),e,8.7219,104.6803,280.7393,6.047755,0.0662694,0.58526954,217.6593,01/23.0/2025,2000,g 14.0,4.0
# From MPEC 2022-K19
P/2015 PD229 (Cameron-ISON),e,2.0207,342.7467,352.7079,7.205678,0.0509556,0.32539929,175.9184,01/23.0/2025,2000,g 11.5,2.0
# From MPC 96867
P/2015 Q2 (Pimentel),e,146.5552,228.5461,244.6647,7.349284,0.0494694,0.75199860,169.1953,01/23.0/2025,2000,g 15.5,4.0
# From MPC 98562
P/2015 R1 (PANSTARRS),e,22.6852,48.3831,300.5328,5.883818,0.0690582,0.63311046,241.3330,01/23.0/2025,2000,g 14.0,4.0
# From MPC 95734
P/2015 R2 (PANSTARRS),e,15.4821,168.6023,149.8773,4.480532,0.1039225,0.45208152,3.9773,01/23.0/2025,2000,g 14.5,4.0
# From MPC102953
P/2015 TO19 (Lemmon-PANSTARRS),e,6.5055,321.6616,89.3239,4.546787,0.1016593,0.35964354,329.0490,01/23.0/2025,2000,g 14.0,4.0
# From MPC110080
P/2015 TP200 (LINEAR),e,8.7794,6.9277,82.5573,7.262024,0.0503637,0.53738689,151.2496,01/23.0/2025,2000,g 11.0,4.0
# From MPC101098
P/2015 W2 (Catalina),e,11.6196,294.0819,117.6936,7.292691,0.0500463,0.63541926,169.8808,01/23.0/2025,2000,g 13.0,4.0
# From MPEC 2023-J29
P/2015 X3 (PANSTARRS),e,24.4232,77.2562,306.9654,4.998423,0.0881971,0.43994866,303.6818,01/23.0/2025,2000,g 15.0,4.0
# From MPC115881
P/2015 X6 (PANSTARRS),e,4.5654,106.9345,329.7871,2.752170,0.2158694,0.17387092,336.5479,01/23.0/2025,2000,g 16.0,4.0
# From MPEC 2024-Y66
C/2015 K7,h,02/26.8870/2013,159.9303,258.1777,5.4372,1.001482,9.934049,2000,8.1,4.0
# From MPEC 2022-OB6
P/2016 A3 (PANSTARRS),e,8.5190,187.1451,340.7942,7.868469,0.0446549,0.38688274,126.3310,01/23.0/2025,2000,g 10.0,4.0
# From MPC102098
P/2016 A7 (PANSTARRS),e,16.4427,221.1115,352.5660,5.052754,0.0867784,0.56920256,285.7096,01/23.0/2025,2000,g 16.0,4.0
# From MPEC 2021-P47
P/2016 G1 (PANSTARRS),e,10.9699,204.0140,111.0922,2.583886,0.2372979,0.21008614,333.1464,01/23.0/2025,2000,g 14.0,4.0
# From MPEC 2024-C04
C/2016 J2 (Denneau),h,04/13.1813/2016,130.3595,186.3305,318.3034,1.000414,1.496039,2000,17.0,4.0
# From MPC102099
P/2016 P1 (PANSTARRS),e,24.4106,319.1377,270.9047,3.203748,0.1718765,0.28763198,227.3991,01/23.0/2025,2000,g 15.0,4.0
# From MPEC 2024-H50
C/2016 Q2 (PANSTARRS),h,05/11.9314/2021,109.3350,322.3456,84.5363,1.002771,7.080022,2000,6.0,4.0
# From MPEC 2022-K19
P/2016 R4 (Gibbs),e,10.8660,168.2726,174.1173,5.336658,0.0799466,0.47493178,248.3688,01/23.0/2025,2000,g 12.5,4.0
# From MPC105543
P/2016 S1 (PANSTARRS),e,94.7359,227.6621,273.1712,8.267515,0.0414612,0.71186474,118.8231,01/23.0/2025,2000,g 12.0,4.0
# From MPC106345
P/2016 WM48 (Lemmon),e,117.6317,59.9523,36.1832,8.173774,0.0421765,0.78400277,121.7719,01/23.0/2025,2000,g 15.0,4.0
# From MPEC 2021-P47
C/2016 X1 (Lemmon),e,26.4704,256.2987,224.5849,2364,0.0000086,0.99680331,0.0000,04/30.2077/2019,2000,g  6.0,4.0
# From MPEC 2022-OB6
C/2017 B3 (LINEAR),e,54.2087,2.2280,284.7898,3902,0.0000040,0.99899178,0.0000,01/30.3386/2019,2000,g  6.0,4.0
# From MPC103847
P/2017 B4 (PANSTARRS),e,20.0584,121.4578,11.0197,4.410520,0.1064068,0.36495152,359.9130,01/05.0/2017,2000,g 14.5,4.0
# From MPEC 2022-OB6
P/2017 D1 (Fuls),e,20.7719,82.1975,8.0520,4.823152,0.0930481,0.43781139,291.3417,01/23.0/2025,2000,g 14.0,4.0
# From MPEC 2022-OB6
P/2017 D4 (PANSTARRS),e,10.5617,264.9140,212.1224,7.542077,0.0475847,0.63050739,145.4746,01/23.0/2025,2000,g 13.0,4.0
# From MPEC 2024-C04
P/2017 G1 (PANSTARRS),e,5.1558,247.1433,225.2377,7.192610,0.0510945,0.65074743,163.4965,01/23.0/2025,2000,g 13.5,4.0
# From MPC108595
P/2017 G2 (PANSTARRS),e,47.9684,79.9025,105.2211,8.037357,0.0432548,0.64861875,120.4297,01/23.0/2025,2000,g 13.0,4.0
# From MPEC 2025-AH4
C/2017 K2 (PANSTARRS),e,87.6388,88.2217,236.1943,3555,0.0000046,0.99949385,0.0000,12/18.9851/2022,2000,g  1.5,4.0
# From MPEC 2021-N06
P/2017 K3 (Gasparovic),e,4.2726,354.2310,253.2919,5.585917,0.0746556,0.57906518,209.4580,01/23.0/2025,2000,g 14.5,4.0
# From MPEC 2021-P47
C/2017 K5 (PANSTARRS),h,03/25.9430/2020,82.2781,102.4543,171.9712,1.003255,7.680232,2000,5.0,4.0
# From MPEC 2022-OB6
C/2017 M4 (ATLAS),h,01/17.7529/2019,105.6227,66.0222,167.4457,1.000360,3.238453,2000,6.0,4.0
# From MPC114599
P/2017 P1 (PANSTARRS),e,7.6879,221.4649,122.8128,7.921611,0.0442063,0.30927986,106.4667,01/23.0/2025,2000,g 10.0,4.0
# From MPEC 2022-OB6
P/2017 S8 (PANSTARRS),e,29.8407,191.5177,254.9032,2.778668,0.2127889,0.39113598,183.0821,01/23.0/2025,2000,g 16.0,4.0
# From MPEC 2024-A43
C/2017 T2 (PANSTARRS),e,57.2922,64.4499,92.7859,1542,0.0000163,0.99895868,0.0000,05/05.7654/2020,2000,g  5.0,4.0
# From MPC115882
P/2017 TW13 (Lemmon),e,44.8787,322.1443,119.9907,7.136529,0.0516980,0.71075117,124.3521,01/23.0/2025,2000,g 15.0,2.0
# From MPEC 2022-K19
P/2017 U3 (PANSTARRS),e,15.9206,165.0643,296.3741,4.920017,0.0903138,0.10077648,190.4771,01/23.0/2025,2000,g 11.0,4.0
# From MPEC 2023-A50
C/2017 U7 (PANSTARRS),h,09/16.2785/2019,142.6387,276.3183,326.4441,1.002805,6.422351,2000,8.3,2.0
# From MPC114601
P/2017 W3 (Gibbs),e,18.1834,210.0925,327.7623,7.819638,0.0450738,0.50686810,113.7082,01/23.0/2025,2000,g 10.5,4.0
# From MPEC 2024-DC6
C/2017 Y2 (PANSTARRS),h,11/05.0260/2020,128.4496,66.0361,147.8418,1.001269,4.623765,2000,15.0,4.0
# From MPC111770
P/2017 Y3 (Leonard),e,27.6197,153.9926,67.3719,9.797413,0.0321393,0.86948063,81.7189,01/23.0/2025,2000,g 16.5,4.0
